ONEWEB-0033             
1 45142U 20008M   25214.18390910 -.00000434  00000+0 -12793-2 0  9997
2 45142  87.8797  99.9162 0001791  71.0589 289.0732 13.10375573267335
ONEWEB-0035             
1 45143U 20008N   25214.13828142  .00000677  00000+0  19030-2 0  9994
2 45143  87.8793  99.9273 0001797  73.0185 287.1139 13.10372001267046
ONEWEB-0036             
1 45144U 20008P   25213.21201626  .00000764  00000+0  21508-2 0  9995
2 45144  87.8806 100.0547 0001820  86.4970 273.6366 13.10378940266462
ONEWEB-0038             
1 45145U 20008Q   25214.17208991  .00000544  00000+0  14982-2 0  9998
2 45145  87.8812  84.6428 0003502  67.1991 292.9507 13.11416615269303
ONEWEB-0039             
1 45146U 20008R   25214.18722934 -.00000216  00000+0 -65474-3 0  9999
2 45146  87.8800  99.8822 0002189  86.4625 273.6753 13.10374911267167
ONEWEB-0040             
1 45147U 20008S   25213.18793422 -.00000332  00000+0 -98736-3 0  9995
2 45147  87.8807 100.1098 0001818  77.2499 282.8832 13.10374851265959
ONEWEB-0043             
1 45149U 20008U   25214.18223793 -.00000471  00000+0 -13867-2 0  9992
2 45149  87.8801  99.8961 0001923  90.7648 269.3700 13.10373781267183
ONEWEB-0044             
1 45150U 20008V   25214.13413656  .00000617  00000+0  17312-2 0  9997
2 45150  87.8795  99.8972 0001892  85.6007 274.5336 13.10372613267463
