<?xml version="1.0" encoding="UTF-8"?>
<ndm xmlns:xsi="http://www.w3.org/2001/XMLSchema-instance" xsi:noNamespaceSchemaLocation="https://sanaregistry.org/r/ndmxml_unqualified/ndmxml-2.0.0-master-2.0.xsd">
<omm id="CCSDS_OMM_VERS" version="2.0">
<header><CREATION_DATE/><ORIGINATOR/></header><body><segment><metadata><OBJECT_NAME>ONEWEB-0033</OBJECT_NAME><OBJECT_ID>2020-008M</OBJECT_ID><CENTER_NAME>EARTH</CENTER_NAME><REF_FRAME>TEME</REF_FRAME><TIME_SYSTEM>UTC</TIME_SYSTEM><MEAN_ELEMENT_THEORY>SGP4</MEAN_ELEMENT_THEORY></metadata><data><meanElements><EPOCH>2025-08-02T04:24:49.746240</EPOCH><MEAN_MOTION>13.10375573</MEAN_MOTION><ECCENTRICITY>.0001791</ECCENTRICITY><INCLINATION>87.8797</INCLINATION><RA_OF_ASC_NODE>99.9162</RA_OF_ASC_NODE><ARG_OF_PERICENTER>71.0589</ARG_OF_PERICENTER><MEAN_ANOMALY>289.0732</MEAN_ANOMALY></meanElements><tleParameters><EPHEMERIS_TYPE>0</EPHEMERIS_TYPE><CLASSIFICATION_TYPE>U</CLASSIFICATION_TYPE><NORAD_CAT_ID>45142</NORAD_CAT_ID><ELEMENT_SET_NO>999</ELEMENT_SET_NO><REV_AT_EPOCH>26733</REV_AT_EPOCH><BSTAR>-.12793E-2</BSTAR><MEAN_MOTION_DOT>-.434E-5</MEAN_MOTION_DOT><MEAN_MOTION_DDOT>0</MEAN_MOTION_DDOT></tleParameters></data></segment></body></omm>
<omm id="CCSDS_OMM_VERS" version="2.0">
<header><CREATION_DATE/><ORIGINATOR/></header><body><segment><metadata><OBJECT_NAME>ONEWEB-0035</OBJECT_NAME><OBJECT_ID>2020-008N</OBJECT_ID><CENTER_NAME>EARTH</CENTER_NAME><REF_FRAME>TEME</REF_FRAME><TIME_SYSTEM>UTC</TIME_SYSTEM><MEAN_ELEMENT_THEORY>SGP4</MEAN_ELEMENT_THEORY></metadata><data><meanElements><EPOCH>2025-08-02T03:19:07.514688</EPOCH><MEAN_MOTION>13.10372001</MEAN_MOTION><ECCENTRICITY>.0001797</ECCENTRICITY><INCLINATION>87.8793</INCLINATION><RA_OF_ASC_NODE>99.9273</RA_OF_ASC_NODE><ARG_OF_PERICENTER>73.0185</ARG_OF_PERICENTER><MEAN_ANOMALY>287.1139</MEAN_ANOMALY></meanElements><tleParameters><EPHEMERIS_TYPE>0</EPHEMERIS_TYPE><CLASSIFICATION_TYPE>U</CLASSIFICATION_TYPE><NORAD_CAT_ID>45143</NORAD_CAT_ID><ELEMENT_SET_NO>999</ELEMENT_SET_NO><REV_AT_EPOCH>26704</REV_AT_EPOCH><BSTAR>.1903E-2</BSTAR><MEAN_MOTION_DOT>.677E-5</MEAN_MOTION_DOT><MEAN_MOTION_DDOT>0</MEAN_MOTION_DDOT></tleParameters></data></segment></body></omm>
<omm id="CCSDS_OMM_VERS" version="2.0">
<header><CREATION_DATE/><ORIGINATOR/></header><body><segment><metadata><OBJECT_NAME>ONEWEB-0036</OBJECT_NAME><OBJECT_ID>2020-008P</OBJECT_ID><CENTER_NAME>EARTH</CENTER_NAME><REF_FRAME>TEME</REF_FRAME><TIME_SYSTEM>UTC</TIME_SYSTEM><MEAN_ELEMENT_THEORY>SGP4</MEAN_ELEMENT_THEORY></metadata><data><meanElements><EPOCH>2025-08-01T05:05:18.204864</EPOCH><MEAN_MOTION>13.10378940</MEAN_MOTION><ECCENTRICITY>.000182</ECCENTRICITY><INCLINATION>87.8806</INCLINATION><RA_OF_ASC_NODE>100.0547</RA_OF_ASC_NODE><ARG_OF_PERICENTER>86.4970</ARG_OF_PERICENTER><MEAN_ANOMALY>273.6366</MEAN_ANOMALY></meanElements><tleParameters><EPHEMERIS_TYPE>0</EPHEMERIS_TYPE><CLASSIFICATION_TYPE>U</CLASSIFICATION_TYPE><NORAD_CAT_ID>45144</NORAD_CAT_ID><ELEMENT_SET_NO>999</ELEMENT_SET_NO><REV_AT_EPOCH>26646</REV_AT_EPOCH><BSTAR>.21508E-2</BSTAR><MEAN_MOTION_DOT>.764E-5</MEAN_MOTION_DOT><MEAN_MOTION_DDOT>0</MEAN_MOTION_DDOT></tleParameters></data></segment></body></omm>
<omm id="CCSDS_OMM_VERS" version="2.0">
<header><CREATION_DATE/><ORIGINATOR/></header><body><segment><metadata><OBJECT_NAME>ONEWEB-0038</OBJECT_NAME><OBJECT_ID>2020-008Q</OBJECT_ID><CENTER_NAME>EARTH</CENTER_NAME><REF_FRAME>TEME</REF_FRAME><TIME_SYSTEM>UTC</TIME_SYSTEM><MEAN_ELEMENT_THEORY>SGP4</MEAN_ELEMENT_THEORY></metadata><data><meanElements><EPOCH>2025-08-02T04:07:48.568224</EPOCH><MEAN_MOTION>13.11416615</MEAN_MOTION><ECCENTRICITY>.0003502</ECCENTRICITY><INCLINATION>87.8812</INCLINATION><RA_OF_ASC_NODE>84.6428</RA_OF_ASC_NODE><ARG_OF_PERICENTER>67.1991</ARG_OF_PERICENTER><MEAN_ANOMALY>292.9507</MEAN_ANOMALY></meanElements><tleParameters><EPHEMERIS_TYPE>0</EPHEMERIS_TYPE><CLASSIFICATION_TYPE>U</CLASSIFICATION_TYPE><NORAD_CAT_ID>45145</NORAD_CAT_ID><ELEMENT_SET_NO>999</ELEMENT_SET_NO><REV_AT_EPOCH>26930</REV_AT_EPOCH><BSTAR>.14982E-2</BSTAR><MEAN_MOTION_DOT>.544E-5</MEAN_MOTION_DOT><MEAN_MOTION_DDOT>0</MEAN_MOTION_DDOT></tleParameters></data></segment></body></omm>
<omm id="CCSDS_OMM_VERS" version="2.0">
<header><CREATION_DATE/><ORIGINATOR/></header><body><segment><metadata><OBJECT_NAME>ONEWEB-0039</OBJECT_NAME><OBJECT_ID>2020-008R</OBJECT_ID><CENTER_NAME>EARTH</CENTER_NAME><REF_FRAME>TEME</REF_FRAME><TIME_SYSTEM>UTC</TIME_SYSTEM><MEAN_ELEMENT_THEORY>SGP4</MEAN_ELEMENT_THEORY></metadata><data><meanElements><EPOCH>2025-08-02T04:29:36.614976</EPOCH><MEAN_MOTION>13.10374911</MEAN_MOTION><ECCENTRICITY>.0002189</ECCENTRICITY><INCLINATION>87.8800</INCLINATION><RA_OF_ASC_NODE>99.8822</RA_OF_ASC_NODE><ARG_OF_PERICENTER>86.4625</ARG_OF_PERICENTER><MEAN_ANOMALY>273.6753</MEAN_ANOMALY></meanElements><tleParameters><EPHEMERIS_TYPE>0</EPHEMERIS_TYPE><CLASSIFICATION_TYPE>U</CLASSIFICATION_TYPE><NORAD_CAT_ID>45146</NORAD_CAT_ID><ELEMENT_SET_NO>999</ELEMENT_SET_NO><REV_AT_EPOCH>26716</REV_AT_EPOCH><BSTAR>-.65474E-3</BSTAR><MEAN_MOTION_DOT>-.216E-5</MEAN_MOTION_DOT><MEAN_MOTION_DDOT>0</MEAN_MOTION_DDOT></tleParameters></data></segment></body></omm>
<omm id="CCSDS_OMM_VERS" version="2.0">
<header><CREATION_DATE/><ORIGINATOR/></header><body><segment><metadata><OBJECT_NAME>ONEWEB-0040</OBJECT_NAME><OBJECT_ID>2020-008S</OBJECT_ID><CENTER_NAME>EARTH</CENTER_NAME><REF_FRAME>TEME</REF_FRAME><TIME_SYSTEM>UTC</TIME_SYSTEM><MEAN_ELEMENT_THEORY>SGP4</MEAN_ELEMENT_THEORY></metadata><data><meanElements><EPOCH>2025-08-01T04:30:37.516608</EPOCH><MEAN_MOTION>13.10374851</MEAN_MOTION><ECCENTRICITY>.0001818</ECCENTRICITY><INCLINATION>87.8807</INCLINATION><RA_OF_ASC_NODE>100.1098</RA_OF_ASC_NODE><ARG_OF_PERICENTER>77.2499</ARG_OF_PERICENTER><MEAN_ANOMALY>282.8832</MEAN_ANOMALY></meanElements><tleParameters><EPHEMERIS_TYPE>0</EPHEMERIS_TYPE><CLASSIFICATION_TYPE>U</CLASSIFICATION_TYPE><NORAD_CAT_ID>45147</NORAD_CAT_ID><ELEMENT_SET_NO>999</ELEMENT_SET_NO><REV_AT_EPOCH>26595</REV_AT_EPOCH><BSTAR>-.98736E-3</BSTAR><MEAN_MOTION_DOT>-.332E-5</MEAN_MOTION_DOT><MEAN_MOTION_DDOT>0</MEAN_MOTION_DDOT></tleParameters></data></segment></body></omm>
<omm id="CCSDS_OMM_VERS" version="2.0">
<header><CREATION_DATE/><ORIGINATOR/></header><body><segment><metadata><OBJECT_NAME>ONEWEB-0043</OBJECT_NAME><OBJECT_ID>2020-008U</OBJECT_ID><CENTER_NAME>EARTH</CENTER_NAME><REF_FRAME>TEME</REF_FRAME><TIME_SYSTEM>UTC</TIME_SYSTEM><MEAN_ELEMENT_THEORY>SGP4</MEAN_ELEMENT_THEORY></metadata><data><meanElements><EPOCH>2025-08-02T04:22:25.357152</EPOCH><MEAN_MOTION>13.10373781</MEAN_MOTION><ECCENTRICITY>.0001923</ECCENTRICITY><INCLINATION>87.8801</INCLINATION><RA_OF_ASC_NODE>99.8961</RA_OF_ASC_NODE><ARG_OF_PERICENTER>90.7648</ARG_OF_PERICENTER><MEAN_ANOMALY>269.3700</MEAN_ANOMALY></meanElements><tleParameters><EPHEMERIS_TYPE>0</EPHEMERIS_TYPE><CLASSIFICATION_TYPE>U</CLASSIFICATION_TYPE><NORAD_CAT_ID>45149</NORAD_CAT_ID><ELEMENT_SET_NO>999</ELEMENT_SET_NO><REV_AT_EPOCH>26718</REV_AT_EPOCH><BSTAR>-.13867E-2</BSTAR><MEAN_MOTION_DOT>-.471E-5</MEAN_MOTION_DOT><MEAN_MOTION_DDOT>0</MEAN_MOTION_DDOT></tleParameters></data></segment></body></omm>
<omm id="CCSDS_OMM_VERS" version="2.0">
<header><CREATION_DATE/><ORIGINATOR/></header><body><segment><metadata><OBJECT_NAME>ONEWEB-0044</OBJECT_NAME><OBJECT_ID>2020-008V</OBJECT_ID><CENTER_NAME>EARTH</CENTER_NAME><REF_FRAME>TEME</REF_FRAME><TIME_SYSTEM>UTC</TIME_SYSTEM><MEAN_ELEMENT_THEORY>SGP4</MEAN_ELEMENT_THEORY></metadata><data><meanElements><EPOCH>2025-08-02T03:13:09.398784</EPOCH><MEAN_MOTION>13.10372613</MEAN_MOTION><ECCENTRICITY>.0001892</ECCENTRICITY><INCLINATION>87.8795</INCLINATION><RA_OF_ASC_NODE>99.8972</RA_OF_ASC_NODE><ARG_OF_PERICENTER>85.6007</ARG_OF_PERICENTER><MEAN_ANOMALY>274.5336</MEAN_ANOMALY></meanElements><tleParameters><EPHEMERIS_TYPE>0</EPHEMERIS_TYPE><CLASSIFICATION_TYPE>U</CLASSIFICATION_TYPE><NORAD_CAT_ID>45150</NORAD_CAT_ID><ELEMENT_SET_NO>999</ELEMENT_SET_NO><REV_AT_EPOCH>26746</REV_AT_EPOCH><BSTAR>.17312E-2</BSTAR><MEAN_MOTION_DOT>.617E-5</MEAN_MOTION_DOT><MEAN_MOTION_DDOT>0</MEAN_MOTION_DDOT></tleParameters></data></segment></body></omm>

</ndm>
